0 COSMOS 2468
1 37154U 10043C   13281.91229177  .00000031  00000-0  14989-3 0  9078
2 37154 082.4569 082.8566 0014104 355.4423 004.6526 12.42874443139934
0 COSMOS 2468
1 37154U 10043C   13282.47577614  .00000020  00000-0  74210-4 0  9085
2 37154 082.4571 082.5042 0014104 354.1690 005.9223 12.42874340140009
0 COSMOS 2468
1 37154U 10043C   13282.71726937  .00000015  00000-0  36134-4 0  9094
2 37154 082.4569 082.3532 0014082 353.5912 006.4980 12.42874271140035
0 COSMOS 2468
1 37154U 10043C   13282.95876273  .00000015  00000-0  35584-4 0  9109
2 37154 082.4568 082.2019 0014077 353.0630 007.0255 12.42874279140062
0 COSMOS 2468
1 37154U 10043C   13284.16622870  .00000015  00000-0  39685-4 0  9113
2 37154 082.4570 081.4471 0014031 350.3673 009.7136 12.42874312140217
0 COSMOS 2468
1 37154U 10043C   13286.50066285  .00000021  00000-0  82351-4 0  9143
2 37154 082.4566 079.9865 0013898 345.1287 014.9382 12.42874416140502
0 COSMOS 2468
1 37154U 10043C   13287.70812886  .00000022  00000-0  87858-4 0  9151
2 37154 082.4563 079.2313 0013862 342.4729 017.5871 12.42874454140652
0 COSMOS 2468
1 37154U 10043C   13287.94962208  .00000031  00000-0  15165-3 0  9163
2 37154 082.4562 079.0799 0013821 341.8657 018.1946 12.42874580140688
0 COSMOS 2468
1 37154U 10043C   13288.51310585  .00000030  00000-0  14512-3 0  9177
2 37154 082.4563 078.7275 0013810 340.5973 019.4583 12.42874599140758
0 COSMOS 2468
1 37154U 10043C   13288.75459897  .00000036  00000-0  18970-3 0  9182
2 37154 082.4563 078.5765 0013806 340.0676 019.9868 12.42874679140783
0 COSMOS 2468
1 37154U 10043C   13289.07658976  .00000037  00000-0  19338-3 0  9198
2 37154 082.4562 078.3751 0013796 339.4048 020.6473 12.42874698140825
0 COSMOS 2468
1 37154U 10043C   13290.12306006  .00000044  00000-0  24398-3 0  9202
2 37154 082.4568 077.7213 0013755 337.0965 022.9505 12.42874860140950
0 COSMOS 2468
1 37154U 10043C   13291.16953009  .00000055  00000-0  32888-3 0  9214
2 37154 082.4570 077.0669 0013715 334.7246 025.3169 12.42875071141086
0 COSMOS 2468
1 37154U 10043C   13292.05500476  .00000053  00000-0  31453-3 0  9225
2 37154 082.4568 076.5130 0013697 332.6878 027.3483 12.42875123141198
0 COSMOS 2468
1 37154U 10043C   13292.85998150  .00000053  00000-0  31417-3 0  9234
2 37154 082.4568 076.0095 0013668 330.8508 029.1797 12.42875181141294
0 COSMOS 2468
1 37154U 10043C   13294.14794517  .00000042  00000-0  23134-3 0  9245
2 37154 082.4572 075.2044 0013579 327.8429 032.1822 12.42875138141456
0 COSMOS 2468
1 37154U 10043C   13295.35541101  .00000035  00000-0  18058-3 0  9250
2 37154 082.4573 074.4496 0013551 325.0872 034.9324 12.42875137141604
